ONEWEB-0128             
1 47274U 20100S   24137.72657029 -.00000295  00000+0 -85451-3 0  9995
2 47274  87.8936 142.2767 0002221  97.1220 263.0161 13.12442632164866
ONEWEB-0129             
1 47275U 20100T   24137.70592470  .00000330  00000+0  88103-3 0  9997
2 47275  87.8928 142.2499 0003292  66.8755 293.2720 13.12443625164796
ONEWEB-0130             
1 47276U 20100U   24138.49688155 -.00000324  00000+0 -93620-3 0  9996
2 47276  87.8925 142.1010 0002201  90.5235 269.6145 13.12443593164868
ONEWEB-0131             
1 47277U 20100V   24138.49369839 -.00000297  00000+0 -86122-3 0  9990
2 47277  87.8929 142.1158 0002107  93.7261 266.4108 13.12443927164905
ONEWEB-0132             
1 47278U 20100W   24137.75993994  .00000338  00000+0  90375-3 0  9993
2 47278  87.8930 142.2635 0001858  96.4816 263.6524 13.12443556164704
ONEWEB-0133             
1 47279U 20100X   24137.77580952  .00000500  00000+0  13531-2 0  9991
2 47279  87.8924 142.2606 0002053  94.2273 265.9090 13.12441477164867
ONEWEB-0134             
1 47280U 20100Y   24137.74562899 -.00000116  00000+0 -35767-3 0  9991
2 47280  87.8921 142.2548 0002298  93.1695 266.9697 13.12445016164832
ONEWEB-0135             
1 47281U 20100Z   24138.47623158  .00000235  00000+0  61845-3 0  9995
2 47281  87.8925 142.1232 0002086  90.3143 269.8224 13.12440639164955
